[{"OBJECT_NAME":"STARLINK-34277","OBJECT_ID":"2025-112L","EPOCH":"2026-03-09T17:42:52.780032","MEAN_MOTION":15.05662386,"ECCENTRICITY":0.0001317,"INCLINATION":97.6026,"RA_OF_ASC_NODE":121.5417,"ARG_OF_PERICENTER":74.6478,"MEAN_ANOMALY":285.4894,"EPHEMERIS_TYPE":0,"CLASSIFICATION_TYPE":"U","NORAD_CAT_ID":64156,"ELEMENT_SET_NO":999,"REV_AT_EPOCH":4331,"BSTAR":0.00040342702,"MEAN_MOTION_DOT":5.767e-5,"MEAN_MOTION_DDOT":0},{"OBJECT_NAME":"CZ-6A DEB","OBJECT_ID":"2024-140ACV","EPOCH":"2026-03-09T14:12:17.134272","MEAN_MOTION":14.90958508,"ECCENTRICITY":0.0072596,"INCLINATION":89.2243,"RA_OF_ASC_NODE":297.3941,"ARG_OF_PERICENTER":114.4317,"MEAN_ANOMALY":246.4509,"EPHEMERIS_TYPE":0,"CLASSIFICATION_TYPE":"U","NORAD_CAT_ID":61829,"ELEMENT_SET_NO":999,"REV_AT_EPOCH":7741,"BSTAR":0.0037165,"MEAN_MOTION_DOT":0.00038761,"MEAN_MOTION_DDOT":0}]
